{
    "links": {
        "self": "http://www.neowsapp.com/rest/v1/neo/3398087?api_key=iIulBulltgU6a56xZRHN4H3l9WmuAYTsLGpBGhQ2"
    },
    "id": "3398087",
    "neo_reference_id": "3398087",
    "name": "(2007 XW23)",
    "designation": "2007 XW23",
    "nasa_jpl_url": "http://ssd.jpl.nasa.gov/sbdb.cgi?sstr=3398087",
    "absolute_magnitude_h": 25.8,
    "estimated_diameter": {
        "kilometers": {
            "estimated_diameter_min": 0.0183888672,
            "estimated_diameter_max": 0.0411187571
        },
        "meters": {
            "estimated_diameter_min": 18.388867207,
            "estimated_diameter_max": 41.1187571041
        },
        "miles": {
            "estimated_diameter_min": 0.0114263088,
            "estimated_diameter_max": 0.0255500032
        },
        "feet": {
            "estimated_diameter_min": 60.3309310875,
            "estimated_diameter_max": 134.9040630575
        }
    },
    "is_potentially_hazardous_asteroid": false,
    "close_approach_data": [
        {
            "close_approach_date": "2007-07-10",
            "close_approach_date_full": "2007-Jul-10 08:31",
            "epoch_date_close_approach": 1184056260000,
            "relative_velocity": {
                "kilometers_per_second": "6.4251983799",
                "kilometers_per_hour": "23130.714167594",
                "miles_per_hour": "14372.5262559697"
            },
            "miss_distance": {
                "astronomical": "0.4607574249",
                "lunar": "179.2346382861",
                "kilometers": "68928329.351724963",
                "miles": "42830077.8020639694"
            },
            "orbiting_body": "Earth"
        },
        {
            "close_approach_date": "2007-12-07",
            "close_approach_date_full": "2007-Dec-07 07:39",
            "epoch_date_close_approach": 1197013140000,
            "relative_velocity": {
                "kilometers_per_second": "10.4399936589",
                "kilometers_per_hour": "37583.9771721282",
                "miles_per_hour": "23353.2218156482"
            },
            "miss_distance": {
                "astronomical": "0.031732955",
                "lunar": "12.344119495",
                "kilometers": "4747182.47680585",
                "miles": "2949762.40878673"
            },
            "orbiting_body": "Earth"
        }
    ],
    "orbital_data": {
        "orbit_id": "7",
        "orbit_determination_date": "2017-04-06 09:04:54",
        "first_observation_date": "2007-12-15",
        "last_observation_date": "2007-12-16",
        "data_arc_in_days": 1,
        "observations_used": 16,
        "orbit_uncertainty": "9",
        "minimum_orbit_intersection": ".0236537",
        "jupiter_tisserand_invariant": "4.554",
        "epoch_osculation": "2454450.5",
        "eccentricity": ".385647482033828",
        "semi_major_axis": "1.449670941745478",
        "inclination": "7.815194324841922",
        "ascending_node_longitude": "81.58758482234782",
        "orbital_period": "637.5328645680477",
        "perihelion_distance": ".8906089932837261",
        "perihelion_argument": "299.2287459409778",
        "aphelion_distance": "2.008732890207229",
        "perihelion_time": "2454400.523963348157",
        "mean_anomaly": "28.22030705327373",
        "mean_motion": ".5646767719871405",
        "equinox": "J2000",
        "orbit_class": {
            "orbit_class_type": "APO",
            "orbit_class_description": "Near-Earth asteroid orbits which cross the Earth’s orbit similar to that of 1862 Apollo",
            "orbit_class_range": "a (semi-major axis) > 1.0 AU; q (perihelion) < 1.017 AU"
        }
    },
    "is_sentry_object": false
}